[{"OBJECT_NAME":"STARLINK-31479","OBJECT_ID":"2024-056W","EPOCH":"2026-03-09T12:51:14.065344","MEAN_MOTION":15.27578422,"ECCENTRICITY":0.00017925,"INCLINATION":43.0025,"RA_OF_ASC_NODE":235.6488,"ARG_OF_PERICENTER":279.3374,"MEAN_ANOMALY":80.7275,"EPHEMERIS_TYPE":0,"CLASSIFICATION_TYPE":"U","NORAD_CAT_ID":59316,"ELEMENT_SET_NO":999,"REV_AT_EPOCH":11108,"BSTAR":1.7997616e-5,"MEAN_MOTION_DOT":2.33e-6,"MEAN_MOTION_DDOT":0},{"OBJECT_NAME":"CZ-4 DEB","OBJECT_ID":"2003-049H","EPOCH":"2026-03-08T08:27:28.944576","MEAN_MOTION":15.27137095,"ECCENTRICITY":0.00307627,"INCLINATION":98.6284,"RA_OF_ASC_NODE":272.5918,"ARG_OF_PERICENTER":169.0311,"MEAN_ANOMALY":191.1601,"EPHEMERIS_TYPE":0,"CLASSIFICATION_TYPE":"U","NORAD_CAT_ID":35381,"ELEMENT_SET_NO":999,"REV_AT_EPOCH":18390,"BSTAR":0.0032047887,"MEAN_MOTION_DOT":0.00087287,"MEAN_MOTION_DDOT":0}]
